KUIPER-00408            
1 68924U 26098F   26201.48631024 -.00021796  00000+0 -83904-3 0  9996
2 68924  51.8732 270.8284 0014612 277.8715  82.0608 15.25332521 12410
KUIPER-00409            
1 68925U 26098G   26201.91668981 -.00045877  00000+0 -41790-2 0  9999
2 68925  51.8936 269.2898 0006380 299.1434 292.8899 14.94767784  4320
KUIPER-00410            
1 68926U 26098H   26201.91668981 -.01205632  00000+0 -65004-1 0  9991
2 68926  51.8791 268.8586 0013251 267.7713 268.2696 15.17191993  5800
KUIPER-00412            
1 68927U 26098J   26201.91668981 -.00017222  00000+0 -49870-3 0  9992
2 68927  51.8779 264.2281 0003315  21.3996 278.7540 15.34424832  3112
KUIPER-00413            
1 68928U 26098K   26201.91668981 -.00052443  00000+0 -54475-2 0  9993
2 68928  51.8973 271.7376 0021246 281.9517 234.8042 14.89463790  4030
KUIPER-00414            
1 68929U 26098L   26201.55046428  .00001411  00000+0  21400-3 0  9990
2 68929  51.8974 283.2236 0001328 298.0350  62.0478 14.79939211 12249
KUIPER-00415            
1 68930U 26098M   26201.91668981 -.02143832  00000+0 -10586+0 0  9993
2 68930  51.8842 267.1591 0007269 258.7123  31.2629 15.21137551  5570
KUIPER-00416            
1 68931U 26098N   26201.52639125  .00000306  00000+0  18623-4 0  9998
2 68931  51.8749 265.9690 0001642   2.7661 357.3335 15.37600122 12486
KUIPER-00420            
1 68932U 26098P   26201.38377983  .00016572  00000+0  46305-3 0  9993
2 68932  51.8770 267.2659 0003813 333.5684  26.5108 15.36818522 12457
KUIPER-00421            
1 68933U 26098Q   26201.69279372  .00003760  00000+0  14068-3 0  9997
2 68933  51.8776 267.7843 0007305 257.9017 102.1148 15.29789512 12478
KUIPER-00425            
1 68934U 26098R   26201.91668981 -.00445726  00000+0 -36548-1 0  9990
2 68934  51.8950 269.9035 0012239 270.7866  81.3817 15.01118591  5776
KUIPER-00430            
1 68935U 26098S   26201.91668981 -.00049716  00000+0 -51879-2 0  9995
2 68935  51.8963 271.5921 0015253 270.1882  65.4371 14.89341631  4567
KUIPER-00431            
1 68936U 26098T   26201.91668981 -.00026566  00000+0 -34796-2 0  9993
2 68936  51.8980 274.0057 0000847 335.8793 133.2000 14.79810230  5231
KUIPER-00432            
1 68937U 26098U   26201.91668981 -.01116809  00000+0 -66048-1 0  9999
2 68937  51.8779 268.3695 0010919 271.6741 164.1197 15.13773959  4350
KUIPER-00434            
1 68938U 26098V   26201.91668981 -.00056846  00000+0 -58191-2 0  9994
2 68938  51.8948 269.3652 0001398 216.3351 133.7440 14.90274237  4258
KUIPER-00436            
1 68939U 26098W   26201.91668981 -.00046446  00000+0 -41806-2 0  9995
2 68939  51.8903 269.4892 0007661 275.4831 347.7891 14.95232134  3223
