{"fetched_at":"2026-07-21T07:06:26.959Z","source":"https://celestrak.org/NORAD/elements/gp.php?GROUP=kuiper&FORMAT=JSON","constellation":"kuiper","records":[{"OBJECT_NAME":"KUIPER-00408","OBJECT_ID":"2026-098F","EPOCH":"2026-07-20T11:40:17.204736","CLASSIFICATION_TYPE":"U","MEAN_MOTION":15.25332521,"ECCENTRICITY":0.00146124,"INCLINATION":51.8732,"RA_OF_ASC_NODE":270.8284,"ARG_OF_PERICENTER":277.8715,"MEAN_ANOMALY":82.0608,"EPHEMERIS_TYPE":0,"NORAD_CAT_ID":68924,"ELEMENT_SET_NO":999,"REV_AT_EPOCH":1241,"BSTAR":-0.00083903644,"MEAN_MOTION_DOT":-0.00021796,"MEAN_MOTION_DDOT":0},{"OBJECT_NAME":"KUIPER-00409","OBJECT_ID":"2026-098G","EPOCH":"2026-07-20T22:00:01.999584","CLASSIFICATION_TYPE":"U","MEAN_MOTION":14.94767784,"ECCENTRICITY":0.00063809,"INCLINATION":51.8936,"RA_OF_ASC_NODE":269.2898,"ARG_OF_PERICENTER":299.1434,"MEAN_ANOMALY":292.8899,"EPHEMERIS_TYPE":0,"NORAD_CAT_ID":68925,"ELEMENT_SET_NO":999,"REV_AT_EPOCH":432,"BSTAR":-0.004178993,"MEAN_MOTION_DOT":-0.00045877,"MEAN_MOTION_DDOT":0},{"OBJECT_NAME":"KUIPER-00410","OBJECT_ID":"2026-098H","EPOCH":"2026-07-20T22:00:01.999584","CLASSIFICATION_TYPE":"U","MEAN_MOTION":15.17191993,"ECCENTRICITY":0.00132513,"INCLINATION":51.8791,"RA_OF_ASC_NODE":268.8586,"ARG_OF_PERICENTER":267.7713,"MEAN_ANOMALY":268.2696,"EPHEMERIS_TYPE":0,"NORAD_CAT_ID":68926,"ELEMENT_SET_NO":999,"REV_AT_EPOCH":580,"BSTAR":-0.065004219,"MEAN_MOTION_DOT":-0.01205632,"MEAN_MOTION_DDOT":0},{"OBJECT_NAME":"KUIPER-00412","OBJECT_ID":"2026-098J","EPOCH":"2026-07-20T22:00:01.999584","CLASSIFICATION_TYPE":"U","MEAN_MOTION":15.34424832,"ECCENTRICITY":0.00033153,"INCLINATION":51.8779,"RA_OF_ASC_NODE":264.2281,"ARG_OF_PERICENTER":21.3996,"MEAN_ANOMALY":278.754,"EPHEMERIS_TYPE":0,"NORAD_CAT_ID":68927,"ELEMENT_SET_NO":999,"REV_AT_EPOCH":311,"BSTAR":-0.00049870073,"MEAN_MOTION_DOT":-0.00017222,"MEAN_MOTION_DDOT":0},{"OBJECT_NAME":"KUIPER-00413","OBJECT_ID":"2026-098K","EPOCH":"2026-07-20T22:00:01.999584","CLASSIFICATION_TYPE":"U","MEAN_MOTION":14.8946379,"ECCENTRICITY":0.00212463,"INCLINATION":51.8973,"RA_OF_ASC_NODE":271.7376,"ARG_OF_PERICENTER":281.9517,"MEAN_ANOMALY":234.8042,"EPHEMERIS_TYPE":0,"NORAD_CAT_ID":68928,"ELEMENT_SET_NO":999,"REV_AT_EPOCH":403,"BSTAR":-0.0054475435,"MEAN_MOTION_DOT":-0.00052443,"MEAN_MOTION_DDOT":0},{"OBJECT_NAME":"KUIPER-00414","OBJECT_ID":"2026-098L","EPOCH":"2026-07-20T13:12:40.113792","CLASSIFICATION_TYPE":"U","MEAN_MOTION":14.79939211,"ECCENTRICITY":0.0001328,"INCLINATION":51.8974,"RA_OF_ASC_NODE":283.2236,"ARG_OF_PERICENTER":298.035,"MEAN_ANOMALY":62.0478,"EPHEMERIS_TYPE":0,"NORAD_CAT_ID":68929,"ELEMENT_SET_NO":999,"REV_AT_EPOCH":1224,"BSTAR":0.000214,"MEAN_MOTION_DOT":0.00001411,"MEAN_MOTION_DDOT":0},{"OBJECT_NAME":"KUIPER-00415","OBJECT_ID":"2026-098M","EPOCH":"2026-07-20T22:00:01.999584","CLASSIFICATION_TYPE":"U","MEAN_MOTION":15.21137551,"ECCENTRICITY":0.00072691,"INCLINATION":51.8842,"RA_OF_ASC_NODE":267.1591,"ARG_OF_PERICENTER":258.7123,"MEAN_ANOMALY":31.2629,"EPHEMERIS_TYPE":0,"NORAD_CAT_ID":68930,"ELEMENT_SET_NO":999,"REV_AT_EPOCH":557,"BSTAR":-0.10586427,"MEAN_MOTION_DOT":-0.02143832,"MEAN_MOTION_DDOT":0},{"OBJECT_NAME":"KUIPER-00416","OBJECT_ID":"2026-098N","EPOCH":"2026-07-20T12:38:00.204000","CLASSIFICATION_TYPE":"U","MEAN_MOTION":15.37600122,"ECCENTRICITY":0.0001642,"INCLINATION":51.8749,"RA_OF_ASC_NODE":265.969,"ARG_OF_PERICENTER":2.7661,"MEAN_ANOMALY":357.3335,"EPHEMERIS_TYPE":0,"NORAD_CAT_ID":68931,"ELEMENT_SET_NO":999,"REV_AT_EPOCH":1248,"BSTAR":0.000018623,"MEAN_MOTION_DOT":0.00000306,"MEAN_MOTION_DDOT":0},{"OBJECT_NAME":"KUIPER-00420","OBJECT_ID":"2026-098P","EPOCH":"2026-07-20T09:12:38.577312","CLASSIFICATION_TYPE":"U","MEAN_MOTION":15.36818522,"ECCENTRICITY":0.0003813,"INCLINATION":51.877,"RA_OF_ASC_NODE":267.2659,"ARG_OF_PERICENTER":333.5684,"MEAN_ANOMALY":26.5108,"EPHEMERIS_TYPE":0,"NORAD_CAT_ID":68932,"ELEMENT_SET_NO":999,"REV_AT_EPOCH":1245,"BSTAR":0.00046305,"MEAN_MOTION_DOT":0.00016572,"MEAN_MOTION_DDOT":0},{"OBJECT_NAME":"KUIPER-00421","OBJECT_ID":"2026-098Q","EPOCH":"2026-07-20T16:37:37.377408","CLASSIFICATION_TYPE":"U","MEAN_MOTION":15.29789512,"ECCENTRICITY":0.00073056,"INCLINATION":51.8776,"RA_OF_ASC_NODE":267.7843,"ARG_OF_PERICENTER":257.9017,"MEAN_ANOMALY":102.1148,"EPHEMERIS_TYPE":0,"NORAD_CAT_ID":68933,"ELEMENT_SET_NO":999,"REV_AT_EPOCH":1247,"BSTAR":0.0001406758,"MEAN_MOTION_DOT":0.0000376,"MEAN_MOTION_DDOT":0},{"OBJECT_NAME":"KUIPER-00425","OBJECT_ID":"2026-098R","EPOCH":"2026-07-20T22:00:01.999584","CLASSIFICATION_TYPE":"U","MEAN_MOTION":15.01118591,"ECCENTRICITY":0.00122392,"INCLINATION":51.895,"RA_OF_ASC_NODE":269.9035,"ARG_OF_PERICENTER":270.7866,"MEAN_ANOMALY":81.3817,"EPHEMERIS_TYPE":0,"NORAD_CAT_ID":68934,"ELEMENT_SET_NO":999,"REV_AT_EPOCH":577,"BSTAR":-0.036547684,"MEAN_MOTION_DOT":-0.00445726,"MEAN_MOTION_DDOT":0},{"OBJECT_NAME":"KUIPER-00430","OBJECT_ID":"2026-098S","EPOCH":"2026-07-20T22:00:01.999584","CLASSIFICATION_TYPE":"U","MEAN_MOTION":14.89341631,"ECCENTRICITY":0.00152531,"INCLINATION":51.8963,"RA_OF_ASC_NODE":271.5921,"ARG_OF_PERICENTER":270.1882,"MEAN_ANOMALY":65.4371,"EPHEMERIS_TYPE":0,"NORAD_CAT_ID":68935,"ELEMENT_SET_NO":999,"REV_AT_EPOCH":456,"BSTAR":-0.0051879313,"MEAN_MOTION_DOT":-0.00049716,"MEAN_MOTION_DDOT":0},{"OBJECT_NAME":"KUIPER-00431","OBJECT_ID":"2026-098T","EPOCH":"2026-07-20T22:00:01.999584","CLASSIFICATION_TYPE":"U","MEAN_MOTION":14.7981023,"ECCENTRICITY":0.00008479,"INCLINATION":51.898,"RA_OF_ASC_NODE":274.0057,"ARG_OF_PERICENTER":335.8793,"MEAN_ANOMALY":133.2,"EPHEMERIS_TYPE":0,"NORAD_CAT_ID":68936,"ELEMENT_SET_NO":999,"REV_AT_EPOCH":523,"BSTAR":-0.0034796242,"MEAN_MOTION_DOT":-0.00026566,"MEAN_MOTION_DDOT":0},{"OBJECT_NAME":"KUIPER-00432","OBJECT_ID":"2026-098U","EPOCH":"2026-07-20T22:00:01.999584","CLASSIFICATION_TYPE":"U","MEAN_MOTION":15.13773959,"ECCENTRICITY":0.0010919,"INCLINATION":51.8779,"RA_OF_ASC_NODE":268.3695,"ARG_OF_PERICENTER":271.6741,"MEAN_ANOMALY":164.1197,"EPHEMERIS_TYPE":0,"NORAD_CAT_ID":68937,"ELEMENT_SET_NO":999,"REV_AT_EPOCH":435,"BSTAR":-0.066048321,"MEAN_MOTION_DOT":-0.01116809,"MEAN_MOTION_DDOT":0},{"OBJECT_NAME":"KUIPER-00434","OBJECT_ID":"2026-098V","EPOCH":"2026-07-20T22:00:01.999584","CLASSIFICATION_TYPE":"U","MEAN_MOTION":14.90274237,"ECCENTRICITY":0.00013989,"INCLINATION":51.8948,"RA_OF_ASC_NODE":269.3652,"ARG_OF_PERICENTER":216.3351,"MEAN_ANOMALY":133.744,"EPHEMERIS_TYPE":0,"NORAD_CAT_ID":68938,"ELEMENT_SET_NO":999,"REV_AT_EPOCH":425,"BSTAR":-0.0058191053,"MEAN_MOTION_DOT":-0.00056846,"MEAN_MOTION_DDOT":0},{"OBJECT_NAME":"KUIPER-00436","OBJECT_ID":"2026-098W","EPOCH":"2026-07-20T22:00:01.999584","CLASSIFICATION_TYPE":"U","MEAN_MOTION":14.95232134,"ECCENTRICITY":0.00076614,"INCLINATION":51.8903,"RA_OF_ASC_NODE":269.4892,"ARG_OF_PERICENTER":275.4831,"MEAN_ANOMALY":347.7891,"EPHEMERIS_TYPE":0,"NORAD_CAT_ID":68939,"ELEMENT_SET_NO":999,"REV_AT_EPOCH":322,"BSTAR":-0.0041806095,"MEAN_MOTION_DOT":-0.00046446,"MEAN_MOTION_DDOT":0}]}
